{
    "links": {
        "self": "http://www.neowsapp.com/rest/v1/neo/3774558?api_key=iIulBulltgU6a56xZRHN4H3l9WmuAYTsLGpBGhQ2"
    },
    "id": "3774558",
    "neo_reference_id": "3774558",
    "name": "(2017 JR1)",
    "designation": "2017 JR1",
    "nasa_jpl_url": "http://ssd.jpl.nasa.gov/sbdb.cgi?sstr=3774558",
    "absolute_magnitude_h": 24.7,
    "estimated_diameter": {
        "kilometers": {
            "estimated_diameter_min": 0.0305179233,
            "estimated_diameter_max": 0.0682401509
        },
        "meters": {
            "estimated_diameter_min": 30.5179232594,
            "estimated_diameter_max": 68.2401509401
        },
        "miles": {
            "estimated_diameter_min": 0.0189629525,
            "estimated_diameter_max": 0.0424024508
        },
        "feet": {
            "estimated_diameter_min": 100.1244233463,
            "estimated_diameter_max": 223.8850168104
        }
    },
    "is_potentially_hazardous_asteroid": false,
    "close_approach_data": [
        {
            "close_approach_date": "2017-05-13",
            "close_approach_date_full": "2017-May-13 15:53",
            "epoch_date_close_approach": 1494690780000,
            "relative_velocity": {
                "kilometers_per_second": "9.9786249945",
                "kilometers_per_hour": "35923.0499801091",
                "miles_per_hour": "22321.1862501406"
            },
            "miss_distance": {
                "astronomical": "0.0404704255",
                "lunar": "15.7429955195",
                "kilometers": "6054289.452793685",
                "miles": "3761961.021515453"
            },
            "orbiting_body": "Earth"
        },
        {
            "close_approach_date": "2017-10-19",
            "close_approach_date_full": "2017-Oct-19 17:55",
            "epoch_date_close_approach": 1508435700000,
            "relative_velocity": {
                "kilometers_per_second": "6.9655644207",
                "kilometers_per_hour": "25076.0319146567",
                "miles_per_hour": "15581.2710527488"
            },
            "miss_distance": {
                "astronomical": "0.4913531217",
                "lunar": "191.1363643413",
                "kilometers": "73505380.424170779",
                "miles": "45674125.4582395902"
            },
            "orbiting_body": "Earth"
        },
        {
            "close_approach_date": "2022-10-08",
            "close_approach_date_full": "2022-Oct-08 02:04",
            "epoch_date_close_approach": 1665194640000,
            "relative_velocity": {
                "kilometers_per_second": "22.8058202506",
                "kilometers_per_hour": "82100.9529020966",
                "miles_per_hour": "51014.3393185278"
            },
            "miss_distance": {
                "astronomical": "0.4511165748",
                "lunar": "175.4843475972",
                "kilometers": "67486078.711775676",
                "miles": "41933904.8104932888"
            },
            "orbiting_body": "Earth"
        }
    ],
    "orbital_data": {
        "orbit_id": "3",
        "orbit_determination_date": "2017-05-13 06:43:35",
        "first_observation_date": "2017-05-02",
        "last_observation_date": "2017-05-12",
        "data_arc_in_days": 10,
        "observations_used": 56,
        "orbit_uncertainty": "8",
        "minimum_orbit_intersection": ".0404956",
        "jupiter_tisserand_invariant": "4.594",
        "epoch_osculation": "2457876.5",
        "eccentricity": ".3794272421541552",
        "semi_major_axis": "1.434194436428051",
        "inclination": "6.107163644557755",
        "ascending_node_longitude": "212.1669804252453",
        "orbital_period": "627.3508301720258",
        "perihelion_distance": ".8900219967013225",
        "perihelion_argument": "79.04333806382526",
        "aphelion_distance": "1.978366876154779",
        "perihelion_time": "2457933.736901356334",
        "mean_anomaly": "327.1550853250165",
        "mean_motion": ".5738415933892753",
        "equinox": "J2000",
        "orbit_class": {
            "orbit_class_type": "APO",
            "orbit_class_description": "Near-Earth asteroid orbits which cross the Earth’s orbit similar to that of 1862 Apollo",
            "orbit_class_range": "a (semi-major axis) > 1.0 AU; q (perihelion) < 1.017 AU"
        }
    },
    "is_sentry_object": false
}